[
  {
    "OBJECT_NAME": "OEI-TEST-SAT-1",
    "OBJECT_ID": "2020-001A",
    "EPOCH": "2024-01-01T00:00:00.000000",
    "MEAN_MOTION": "15.50000000",
    "ECCENTRICITY": "0.00040000",
    "INCLINATION": "51.6400",
    "RA_OF_ASC_NODE": "120.5000",
    "ARG_OF_PERICENTER": "80.1000",
    "MEAN_ANOMALY": "279.9000",
    "EPHEMERIS_TYPE": "0",
    "CLASSIFICATION_TYPE": "U",
    "NORAD_CAT_ID": 900000001,
    "ELEMENT_SET_NO": "999",
    "REV_AT_EPOCH": "12345",
    "BSTAR": "0.00021000",
    "MEAN_MOTION_DOT": "0.00001000",
    "MEAN_MOTION_DDOT": "0",
    "CREATION_DATE": "2024-01-01T02:00:00.000000"
  },
  {
    "OBJECT_NAME": "OEI-TEST-SAT-2",
    "OBJECT_ID": "2020-002A",
    "EPOCH": "2024-01-01T00:10:00.000000",
    "MEAN_MOTION": "14.20000000",
    "ECCENTRICITY": "0.00010000",
    "INCLINATION": "53.0500",
    "RA_OF_ASC_NODE": "45.2000",
    "ARG_OF_PERICENTER": "12.3000",
    "MEAN_ANOMALY": "347.8000",
    "EPHEMERIS_TYPE": "0",
    "CLASSIFICATION_TYPE": "U",
    "NORAD_CAT_ID": 900000002,
    "ELEMENT_SET_NO": "998",
    "REV_AT_EPOCH": "6789",
    "BSTAR": "0.00005000",
    "MEAN_MOTION_DOT": "0.00000500",
    "MEAN_MOTION_DDOT": "0",
    "CREATION_DATE": "2024-01-01T02:05:00.000000"
  },
  {
    "OBJECT_NAME": "OEI-TEST-SAT-3",
    "OBJECT_ID": "2020-003A",
    "EPOCH": "2024-01-01T00:20:00.000000",
    "MEAN_MOTION": "13.10000000",
    "ECCENTRICITY": "0.00080000",
    "INCLINATION": "97.4000",
    "RA_OF_ASC_NODE": "200.0000",
    "ARG_OF_PERICENTER": "300.0000",
    "MEAN_ANOMALY": "60.0000",
    "EPHEMERIS_TYPE": "0",
    "CLASSIFICATION_TYPE": "U",
    "NORAD_CAT_ID": 900000003,
    "ELEMENT_SET_NO": "997",
    "REV_AT_EPOCH": "54321",
    "BSTAR": "0.00040000",
    "MEAN_MOTION_DOT": "0.00002000",
    "MEAN_MOTION_DDOT": "0",
    "CREATION_DATE": "2024-01-01T02:10:00.000000"
  }
]
